{
"type": "FeatureCollection",
"name": "County_Boundaries",
"crs": { "type": "name", "properties": { "name": "urn:ogc:def:crs:OGC:1.3:CRS84" } },
"features": [
{ "type": "Feature", "properties": { "FID": 150, "CTYUA24CD": "E10000030", "NAME": "Surrey", "CTYUA24NMW": " ", "BNG_E": 515966, "BNG_N": 153408, "LONG": -0.33911, "LAT": 51.26803, "GlobalID": "b47ceabf-5b56-4db1-8277-8a2048cbf042", "_parent_path": "UNITED_KINGDOM/ENGLAND" }, "geometry": { "type": "Polygon", "coordinates": [ [ [ -0.515661418503461, 51.468268653705024 ], [ -0.513850723665789, 51.467984923548045 ], [ -0.513583344459674, 51.468417721550622 ], [ -0.511611718855187, 51.468921405183224 ], [ -0.511134944943982, 51.469301163249817 ], [ -0.509807504950586, 51.469207236123673 ], [ -0.510241303748254, 51.467500321449563 ], [ -0.508788606078698, 51.467103274948983 ], [ -0.507295511483561, 51.466943545731468 ], [ -0.506380545347359, 51.467751824021292 ], [ -0.504253161435454, 51.467766251454556 ], [ -0.501015899246822, 51.467314408051656 ], [ -0.49809746634169, 51.466440768923178 ], [ -0.49694137498016, 51.465849540207877 ], [ -0.493866288763151, 51.46276343795703 ], [ -0.492154421345461, 51.462988278507247 ], [ -0.489617635806514, 51.4617955979759 ], [ -0.486199935210021, 51.461366641465311 ], [ -0.47715426218312, 51.461375340812019 ], [ -0.475912628422894, 51.460792218270804 ], [ -0.476481326081552, 51.460595033307889 ], [ -0.476054298065314, 51.460082300636365 ], [ -0.473617732206598, 51.458576703511788 ], [ -0.468764235639168, 51.457833532179151 ], [ -0.461113425582157, 51.457174374830629 ], [ -0.458723930392137, 51.456341715327795 ], [ -0.459294223905009, 51.452715307707379 ], [ -0.459838536679653, 51.452239520452558 ], [ -0.461320121544743, 51.452391235896599 ], [ -0.46148187006564, 51.448992348748952 ], [ -0.457461800666381, 51.449090600430928 ], [ -0.457443907218181, 51.442998758108914 ], [ -0.455391360329938, 51.442119194772665 ], [ -0.456475280218628, 51.438224511047842 ], [ -0.453660535202493, 51.438494039546576 ], [ -0.44628876895549, 51.439996395446919 ], [ -0.447717058403745, 51.435002948257022 ], [ -0.439752474616419, 51.434619580544528 ], [ -0.439983441466671, 51.430626423774967 ], [ -0.432639981913674, 51.429018053531415 ], [ -0.429534592775836, 51.428797588467653 ], [ -0.429424911990757, 51.429395015911396 ], [ -0.427831572989994, 51.429252338246748 ], [ -0.42748575141716, 51.43081955311051 ], [ -0.423498897092695, 51.430877568897976 ], [ -0.423579760155281, 51.431161018228053 ], [ -0.421154071191944, 51.432171489496831 ], [ -0.419078832329907, 51.432359403714081 ], [ -0.418583924025426, 51.432109930868457 ], [ -0.418356396345904, 51.431866756038474 ], [ -0.417294333932617, 51.431918142182823 ], [ -0.417900588415582, 51.431027998536088 ], [ -0.413806257126384, 51.430075252995017 ], [ -0.414352504618897, 51.429295783519201 ], [ -0.412452796696127, 51.428781848620204 ], [ -0.413086223418858, 51.427855237484593 ], [ -0.410868585406738, 51.427342272583005 ], [ -0.409006743511903, 51.425451124142711 ], [ -0.408441598083172, 51.423834698933256 ], [ -0.407775837058233, 51.423578342497493 ], [ -0.405361719890762, 51.422479940853435 ], [ -0.401759937294002, 51.423312161709717 ], [ -0.398112419711018, 51.42355641056799 ], [ -0.39451185453142, 51.423238239115079 ], [ -0.391317265650771, 51.422315374010275 ], [ -0.386641868720974, 51.420080783643435 ], [ -0.387693742801801, 51.419328246794962 ], [ -0.38676181555134, 51.41765445960425 ], [ -0.386594195008844, 51.415021802465439 ], [ -0.386122801557656, 51.414280627676185 ], [ -0.390292618571905, 51.414337972957966 ], [ -0.389650002945801, 51.410693300628374 ], [ -0.389177047048872, 51.410319908256774 ], [ -0.386635952337486, 51.410411717634098 ], [ -0.383777529598697, 51.410118805746805 ], [ -0.383350210223732, 51.408538265760598 ], [ -0.379428126485904, 51.407833918273212 ], [ -0.373860391673964, 51.408493277110054 ], [ -0.364740017883221, 51.411592060756249 ], [ -0.361238376297417, 51.41204047644294 ], [ -0.359139516395614, 51.411903129923125 ], [ -0.355357203959213, 51.410752134985493 ], [ -0.355109326071938, 51.409807118141046 ], [ -0.349199271896472, 51.406620571881433 ], [ -0.346874128295603, 51.405846779286975 ], [ -0.343719582907724, 51.40389663725793 ], [ -0.340531197504792, 51.403087129254985 ], [ -0.338992877617469, 51.401875120825245 ], [ -0.338238120440556, 51.400763236440831 ], [ -0.336711093506312, 51.399221781985567 ], [ -0.332288289329073, 51.39599479481555 ], [ -0.328671941282109, 51.392308786321976 ], [ -0.327587087724715, 51.391744816853354 ], [ -0.325860459199719, 51.391439577045567 ], [ -0.319833061771867, 51.392593412332566 ], [ -0.31769805337853, 51.393667050160225 ], [ -0.314111751498925, 51.390217128898705 ], [ -0.316737503111983, 51.388772036987227 ], [ -0.315993411881884, 51.387571398221191 ], [ -0.31323090052644, 51.388722487078127 ], [ -0.310809412982126, 51.386212812913293 ], [ -0.311740374476874, 51.385764360961581 ], [ -0.310642369880924, 51.384815602613273 ], [ -0.309501158630664, 51.382432386583069 ], [ -0.309253848879389, 51.380447678925371 ], [ -0.308494693248924, 51.380500555661648 ], [ -0.307365617696553, 51.378383529895281 ], [ -0.307869268250847, 51.378363831213498 ], [ -0.308434189147103, 51.375859420332169 ], [ -0.308672040199606, 51.37544831685414 ], [ -0.312651687185343, 51.374751129539014 ], [ -0.314318261799607, 51.374637560254087 ], [ -0.316671064617909, 51.373165969828037 ], [ -0.317482019927616, 51.37196897546626 ], [ -0.317897638677233, 51.369797790686881 ], [ -0.318481777820549, 51.365762183581502 ], [ -0.3182615929226, 51.363504497726701 ], [ -0.319768556917983, 51.359928170511594 ], [ -0.321505510220252, 51.35720850623305 ], [ -0.323728962009096, 51.354411304067241 ], [ -0.327954077397477, 51.352210637509991 ], [ -0.330510322285561, 51.348419437751339 ], [ -0.328153896305222, 51.344039780341269 ], [ -0.327457246221246, 51.344005556523101 ], [ -0.327883215349854, 51.343741857596704 ], [ -0.328955776974802, 51.340231280362133 ], [ -0.329695322631831, 51.332764643297857 ], [ -0.329092959922789, 51.330262449743209 ], [ -0.33065574504098, 51.329009623662706 ], [ -0.330115619587898, 51.327517250642046 ], [ -0.328222409563256, 51.32646816339804 ], [ -0.327410616265144, 51.326293986948023 ], [ -0.327141104252017, 51.3266951545843 ], [ -0.323947080608179, 51.326716038309996 ], [ -0.318955549146238, 51.327956453323601 ], [ -0.316741733563384, 51.329145846092679 ], [ -0.313692852896912, 51.331414830046242 ], [ -0.310929627252024, 51.332389365140529 ], [ -0.307612365669099, 51.334607670002455 ], [ -0.306189350533189, 51.335075535852262 ], [ -0.305135243131356, 51.336350812634734 ], [ -0.305062949379898, 51.337814606700832 ], [ -0.30538520613849, 51.339558684145686 ], [ -0.304065821258891, 51.343171624707843 ], [ -0.301377114363132, 51.345302913025272 ], [ -0.299230919268907, 51.348369309437288 ], [ -0.292882847223876, 51.352350704596937 ], [ -0.292698164519545, 51.35365714278727 ], [ -0.291330177608043, 51.355086798058046 ], [ -0.291200069246601, 51.356577203982958 ], [ -0.289008602852376, 51.358744787984023 ], [ -0.287018877122695, 51.359397823580423 ], [ -0.285210246125179, 51.361191557535996 ], [ -0.288395816425146, 51.362159932642541 ], [ -0.287199740080463, 51.362539383301005 ], [ -0.284071324496325, 51.365149996421138 ], [ -0.282161976265007, 51.365999725274953 ], [ -0.279819582305785, 51.367825059582486 ], [ -0.276560253369906, 51.368807717830272 ], [ -0.275832580496896, 51.37001374591955 ], [ -0.274022739512545, 51.370655255135624 ], [ -0.273462441417418, 51.371609223991157 ], [ -0.272446013304016, 51.37224671533599 ], [ -0.269040492709405, 51.373537287100298 ], [ -0.26462402111825, 51.375616232114353 ], [ -0.262267353749087, 51.377409990548145 ], [ -0.260991511415927, 51.379595644906161 ], [ -0.258212153890365, 51.378918575936034 ], [ -0.25388251811209, 51.378748475234225 ], [ -0.251856170005793, 51.378961518324502 ], [ -0.248473309775694, 51.380059202227983 ], [ -0.245028040196269, 51.380059121378828 ], [ -0.245041414056982, 51.37996023542533 ], [ -0.244679554897873, 51.369061128862725 ], [ -0.24538261682439, 51.366889271816504 ], [ -0.241150520182169, 51.366261942624426 ], [ -0.240891059081377, 51.367036753628788 ], [ -0.238917625830661, 51.366834421878934 ], [ -0.237824947866508, 51.367006875970382 ], [ -0.236779990812623, 51.366796888129237 ], [ -0.23394957806673, 51.365384759028537 ], [ -0.233191523248365, 51.366009999915413 ], [ -0.226944931480695, 51.362625614092948 ], [ -0.224058058569407, 51.359274192563603 ], [ -0.22273661213853, 51.357086040231145 ], [ -0.221975049039426, 51.353530523927688 ], [ -0.222092035358284, 51.351324615051617 ], [ -0.221262146812014, 51.351170781675826 ], [ -0.220421044494306, 51.351419705602986 ], [ -0.220185696332549, 51.350079841755012 ], [ -0.217777657983461, 51.345631369778197 ], [ -0.217264611391336, 51.343387065081565 ], [ -0.221786118103249, 51.341345211710859 ], [ -0.222700561299323, 51.340829397317748 ], [ -0.222276941232268, 51.340460570141857 ], [ -0.223261298547608, 51.339881084175829 ], [ -0.224090742108319, 51.340041200633664 ], [ -0.22682702498344, 51.337888448082964 ], [ -0.229822850377118, 51.336522782715626 ], [ -0.220841802935486, 51.329801943427221 ], [ -0.216085451018181, 51.329799419241155 ], [ -0.214229780641455, 51.330252687015658 ], [ -0.211968619719479, 51.333326084056495 ], [ -0.213054155410731, 51.33555354071904 ], [ -0.2020551254488, 51.340140165628291 ], [ -0.202046541033972, 51.340142587726397 ], [ -0.201199474267704, 51.339884140488458 ], [ -0.199557572015346, 51.341884035836252 ], [ -0.198557756853197, 51.342299375308713 ], [ -0.197319521609121, 51.343595133471347 ], [ -0.196541393582523, 51.343446406068146 ], [ -0.196690506727457, 51.343158229725184 ], [ -0.196267324713696, 51.343039331257671 ], [ -0.196047668989598, 51.343330017095916 ], [ -0.193229455348204, 51.342625590775718 ], [ -0.187459302349083, 51.340812258588912 ], [ -0.175019991382066, 51.33380973261125 ], [ -0.174666441757196, 51.333168423834145 ], [ -0.174139323237083, 51.333211535921365 ], [ -0.172854828391695, 51.330013415446743 ], [ -0.169894615810106, 51.330245850839731 ], [ -0.170066029651349, 51.329474282507206 ], [ -0.163076910320737, 51.330264185807053 ], [ -0.16229069158368, 51.328889368128323 ], [ -0.163970836708826, 51.328582975522792 ], [ -0.163982360581207, 51.328187490340177 ], [ -0.164362345781723, 51.32812601604725 ], [ -0.163567414723798, 51.326213356180197 ], [ -0.164187215279279, 51.326040474643413 ], [ -0.160600300050404, 51.323241451260259 ], [ -0.158634698995638, 51.323975833666459 ], [ -0.15652380989768, 51.321485252741248 ], [ -0.161879930955694, 51.319625668117901 ], [ -0.161177552743871, 51.317522869528055 ], [ -0.160481666271394, 51.31687255521026 ], [ -0.159581198475987, 51.317104840488639 ], [ -0.159314302299864, 51.315955821904218 ], [ -0.157169819035448, 51.313389727067971 ], [ -0.158330670410058, 51.310985356949445 ], [ -0.156228283921175, 51.310420792057499 ], [ -0.154315538370702, 51.310317863075745 ], [ -0.15716325397128, 51.306708886230332 ], [ -0.156415965587159, 51.306452510749146 ], [ -0.154509339948727, 51.306448568053064 ], [ -0.155023533632047, 51.305791216522941 ], [ -0.157735213491187, 51.304427473993158 ], [ -0.156684197935795, 51.303588976057867 ], [ -0.15531787700188, 51.301274357581498 ], [ -0.153360682264003, 51.30167782999807 ], [ -0.151023345797413, 51.300721895181937 ], [ -0.149814768797, 51.300203780722242 ], [ -0.149496364255319, 51.300700488923219 ], [ -0.14845192426554, 51.3007037688701 ], [ -0.145625289503393, 51.299828212963632 ], [ -0.144852263375486, 51.300712555900191 ], [ -0.144423063307667, 51.300541150262305 ], [ -0.143578152737228, 51.301244519949101 ], [ -0.142839147426078, 51.300024980998472 ], [ -0.140864724038942, 51.299575515349645 ], [ -0.137213363426756, 51.300741520475327 ], [ -0.136167648255026, 51.298278885170703 ], [ -0.134356256081666, 51.298375507097461 ], [ -0.131041318334436, 51.295475784009419 ], [ -0.131330503552852, 51.29462456132454 ], [ -0.130288382919938, 51.292888804596103 ], [ -0.126335152053869, 51.289664205183925 ], [ -0.126049270957704, 51.288403092567577 ], [ -0.124302054710955, 51.286790372292842 ], [ -0.117787644004394, 51.287181992049604 ], [ -0.116940195547582, 51.289487762888875 ], [ -0.11580559460834, 51.290644859921997 ], [ -0.115494496067067, 51.291165928077689 ], [ -0.114553477122098, 51.291553656639309 ], [ -0.114734665439404, 51.292451350171241 ], [ -0.111052399775314, 51.292252597013622 ], [ -0.102637596305748, 51.296006932420042 ], [ -0.100545227258456, 51.296447787977947 ], [ -0.094276390150425, 51.299438566943017 ], [ -0.095775800259604, 51.299601502655712 ], [ -0.09739652841924, 51.300384876094668 ], [ -0.097336370566959, 51.301101216449084 ], [ -0.095998061356111, 51.301514269480336 ], [ -0.094818412956161, 51.30062141848974 ], [ -0.091223894649678, 51.301475208864929 ], [ -0.091171781517795, 51.303391661997551 ], [ -0.09072640507116, 51.303944509499409 ], [ -0.089687625105029, 51.303963231455107 ], [ -0.088697805699149, 51.305146523205963 ], [ -0.088825233898334, 51.307218523409084 ], [ -0.088249568045486, 51.307745573472111 ], [ -0.086761161754727, 51.308794572716081 ], [ -0.081931862153759, 51.310647258561822 ], [ -0.081893206066332, 51.312608997759938 ], [ -0.084802524045489, 51.315867163457142 ], [ -0.083591492616292, 51.316382464306201 ], [ -0.08366208787506, 51.31665064025367 ], [ -0.08223681550774, 51.316946509917635 ], [ -0.081504372470282, 51.316722359952522 ], [ -0.08017905063163, 51.317841862117604 ], [ -0.078835174702417, 51.318097702492821 ], [ -0.078913203680215, 51.319769912070122 ], [ -0.074939836734783, 51.320237030369455 ], [ -0.071019963602795, 51.321223800348811 ], [ -0.070067534014691, 51.31890000751811 ], [ -0.063986333882894, 51.318639988508615 ], [ -0.062079076607639, 51.319200255520059 ], [ -0.0606577731448, 51.320064362170925 ], [ -0.058392625747796, 51.320382947951892 ], [ -0.056206722679936, 51.321682144873733 ], [ -0.054864222993358, 51.32128032678542 ], [ -0.052531232285045, 51.322419350835652 ], [ -0.05130742478668, 51.322452245018937 ], [ -0.051266933826928, 51.323438187419889 ], [ -0.049765626684189, 51.325266669720591 ], [ -0.047868941340441, 51.325245015635844 ], [ -0.047828231817563, 51.326509644220138 ], [ -0.049070060484301, 51.328607646130592 ], [ -0.048749478361264, 51.328718377617051 ], [ -0.051081069033043, 51.330845306704653 ], [ -0.05104214562916, 51.331593840398959 ], [ -0.050072395981181, 51.332052492342321 ], [ -0.05027732782047, 51.332637781199288 ], [ -0.048489566179082, 51.332801807455759 ], [ -0.046606442703281, 51.333538413982104 ], [ -0.041986721346718, 51.33386009296207 ], [ -0.039645454168945, 51.337476578169465 ], [ -0.037920342961102, 51.338724695899352 ], [ -0.034509170121451, 51.338082965445956 ], [ -0.032821916171846, 51.337415304627356 ], [ -0.030779216320026, 51.33747189104659 ], [ -0.026129983297317, 51.338545795863453 ], [ -0.022150444406452, 51.338130797541368 ], [ -0.020587943886143, 51.337202506119631 ], [ -0.017860499721429, 51.333017218826861 ], [ -0.01723870171284, 51.332987831303655 ], [ -0.016037254647705, 51.332051614068298 ], [ -0.01431675775281, 51.329772055999861 ], [ -0.013640027798387, 51.331531289581086 ], [ -0.011902476270137, 51.332954214400651 ], [ -0.010725994956869, 51.333083202211142 ], [ -0.010946805649163, 51.333675824564281 ], [ -0.009660918621575, 51.333928379195427 ], [ -0.007127962416083, 51.33373971759935 ], [ -0.007209324491786, 51.333387238380823 ], [ -0.001676810134195, 51.330307371993726 ], [ -0.000503085819105, 51.328778348768083 ], [ 0.002255119616587, 51.329134805561935 ], [ 0.004870082083758, 51.322076294440215 ], [ 0.005545408544673, 51.318444034959796 ], [ 0.006597402890084, 51.315684818095058 ], [ 0.010353568976375, 51.316146321183844 ], [ 0.008386195705151, 51.310561457028591 ], [ 0.012142787419344, 51.299616150499524 ], [ 0.015009191527598, 51.291786037950466 ], [ 0.019101058532185, 51.291684067369523 ], [ 0.020873962610139, 51.295571876386099 ], [ 0.020952895717726, 51.296778347723645 ], [ 0.023599075617822, 51.299704034495228 ], [ 0.024838957642549, 51.302154908050028 ], [ 0.027977628612925, 51.304685279165845 ], [ 0.03028147071332, 51.305558194382812 ], [ 0.032909234780909, 51.307520886983859 ], [ 0.036336609452657, 51.305863197682349 ], [ 0.040917403343886, 51.302721138782324 ], [ 0.041542928986969, 51.302980049035291 ], [ 0.042620024027589, 51.301328874187256 ], [ 0.04309294752229, 51.299054289004808 ], [ 0.044298315273899, 51.298580915397622 ], [ 0.043312925409297, 51.296581729893354 ], [ 0.042396310767545, 51.292673016563967 ], [ 0.042694734768754, 51.292062546096645 ], [ 0.044780021117981, 51.290735594077788 ], [ 0.046739951550837, 51.288592380282878 ], [ 0.048170893971088, 51.285652626166659 ], [ 0.046925640385396, 51.281066260892587 ], [ 0.045360520800504, 51.277921713780351 ], [ 0.045396192400336, 51.276660251729723 ], [ 0.048031623666742, 51.270121074812074 ], [ 0.049610249870131, 51.268032258858923 ], [ 0.049679668370962, 51.265693665656862 ], [ 0.051942211881201, 51.262682721623285 ], [ 0.053251694580063, 51.258164992870604 ], [ 0.05426622861253, 51.256585971495198 ], [ 0.053843414088189, 51.254077996599648 ], [ 0.055130556482463, 51.252379912187969 ], [ 0.057049638546732, 51.251291329475109 ], [ 0.05798824294997, 51.248917756725525 ], [ 0.058242648636181, 51.247778305101008 ], [ 0.057607470507577, 51.244914357630051 ], [ 0.057364591905033, 51.244062449258813 ], [ 0.056239009587065, 51.243175703711408 ], [ 0.055392942571593, 51.240558285744228 ], [ 0.053557128172505, 51.239325170117233 ], [ 0.05393006990412, 51.238143188584303 ], [ 0.052859512984052, 51.236527023254453 ], [ 0.048032577549032, 51.233755964027381 ], [ 0.046058546128295, 51.233318598200619 ], [ 0.045135413271628, 51.231947118787119 ], [ 0.043809259328738, 51.230887454362559 ], [ 0.043863419292752, 51.229783086507382 ], [ 0.043038918307137, 51.229083446595681 ], [ 0.042301648444674, 51.227376765675508 ], [ 0.04368530308848, 51.225827345415361 ], [ 0.04283359394319, 51.224610137287719 ], [ 0.042313990349744, 51.22257688858685 ], [ 0.042950971929383, 51.221794101588792 ], [ 0.04316655899055, 51.220161678567536 ], [ 0.041449416383174, 51.218250922563762 ], [ 0.041148402185095, 51.216623916397474 ], [ 0.036279332339835, 51.216581888098055 ], [ 0.03359876522984, 51.214337948659519 ], [ 0.034720850671585, 51.21348203997205 ], [ 0.034024022602489, 51.212031011921034 ], [ 0.034051224396371, 51.211740049813436 ], [ 0.03459465251287, 51.21166047548617 ], [ 0.03358759410485, 51.211323658083145 ], [ 0.033987662167179, 51.210881376261327 ], [ 0.033771384993919, 51.210554188240678 ], [ 0.035389699058811, 51.208486422423952 ], [ 0.036379139173246, 51.208165231915665 ], [ 0.036198165236469, 51.207956111388718 ], [ 0.037289719529867, 51.207060248534269 ], [ 0.036697142789291, 51.205181078916105 ], [ 0.035794148385312, 51.204213840073201 ], [ 0.039158212420666, 51.200872755461454 ], [ 0.038309131836232, 51.199765150569569 ], [ 0.038386842084921, 51.198832989494562 ], [ 0.0386968510475, 51.198463375096331 ], [ 0.039323597489874, 51.198459645738978 ], [ 0.039681953692242, 51.197822072128517 ], [ 0.040444686776017, 51.197883395788629 ], [ 0.040677432760375, 51.197611324360672 ], [ 0.040419438232722, 51.196662538937993 ], [ 0.041399328572432, 51.195840597926463 ], [ 0.042533826856639, 51.194048188931504 ], [ 0.042065109264075, 51.193709239829793 ], [ 0.042514242315335, 51.193605198642643 ], [ 0.042774779240325, 51.192990900501727 ], [ 0.04405085430626, 51.192622380366693 ], [ 0.044544864447156, 51.191852863487782 ], [ 0.046016795256099, 51.192158978839409 ], [ 0.046966110789727, 51.191684655673804 ], [ 0.047823076968691, 51.191741584573158 ], [ 0.047325081657287, 51.189999265557276 ], [ 0.045167261547621, 51.188615213156581 ], [ 0.046254963267013, 51.187843490051421 ], [ 0.046859126806473, 51.187783381623369 ], [ 0.046257121887591, 51.18734069054527 ], [ 0.047358867062326, 51.18633576011063 ], [ 0.047360228107641, 51.185559566054721 ], [ 0.04891414113953, 51.184879454504575 ], [ 0.049436769083658, 51.185016939939949 ], [ 0.049811019455693, 51.182905022230607 ], [ 0.052286356310499, 51.181226659179998 ], [ 0.052600183480012, 51.180623988538436 ], [ 0.051684695778317, 51.178696609743085 ], [ 0.051777392198846, 51.177755181761555 ], [ 0.050903451662586, 51.177179634528436 ], [ 0.050498773046704, 51.17628198993161 ], [ 0.048696979614056, 51.175591421048935 ], [ 0.048230621149806, 51.174330632369603 ], [ 0.047288798231478, 51.174062920867534 ], [ 0.046693531246182, 51.173477969941736 ], [ 0.046175736191275, 51.171831380066081 ], [ 0.046561602627691, 51.171467517368455 ], [ 0.046250648389015, 51.169193171390425 ], [ 0.047028447480918, 51.168925933575181 ], [ 0.046684019421691, 51.168448166845153 ], [ 0.047086545622041, 51.167717996992835 ], [ 0.046391722076924, 51.166205861535033 ], [ 0.046944781204269, 51.16486959799402 ], [ 0.048623962905934, 51.164418444234613 ], [ 0.04751362236071, 51.161242568463628 ], [ 0.0489007380649, 51.158817025983076 ], [ 0.051494065608014, 51.157245387833548 ], [ 0.051433978881059, 51.154374879371389 ], [ 0.050840985901538, 51.15351470200514 ], [ 0.051223189534153, 51.151684221458133 ], [ 0.052414081479719, 51.150746000060273 ], [ 0.054682328458867, 51.150433663402389 ], [ 0.054805178638218, 51.149528564433147 ], [ 0.054249435756052, 51.148315225655644 ], [ 0.053076280967972, 51.147461655182092 ], [ 0.051851427323702, 51.144925460045663 ], [ 0.050917870234492, 51.144700790688987 ], [ 0.049890734257282, 51.14391214610712 ], [ 0.050016355064253, 51.142649979291406 ], [ 0.04294493208521, 51.141636020611074 ], [ 0.041707981543787, 51.141013707616949 ], [ 0.041205289409432, 51.141188000186894 ], [ 0.038367837699497, 51.140285102229882 ], [ 0.035235679650893, 51.140383699377452 ], [ 0.031595803787991, 51.139794075637823 ], [ 0.029328014007668, 51.140011460995865 ], [ 0.027359884716895, 51.13984796104446 ], [ 0.023238542726896, 51.139072872871623 ], [ 0.020986195068463, 51.1393483355996 ], [ 0.019914671685904, 51.13995230541704 ], [ 0.017093462214022, 51.139149334562866 ], [ 0.010984233192112, 51.138949216090992 ], [ 0.007096815318004, 51.138986314750895 ], [ 0.001165340553794, 51.139605965183058 ], [ -0.001396834869633, 51.138933913525356 ], [ -0.003148702283356, 51.138105879320975 ], [ -0.005427182951785, 51.138208609144783 ], [ -0.005482714461769, 51.137948301959852 ], [ -0.006732613579345, 51.137640725985769 ], [ -0.006229866496149, 51.138473656328216 ], [ -0.006786546853893, 51.139140191855525 ], [ -0.010044254459324, 51.138313334444035 ], [ -0.010171703018493, 51.138740434325847 ], [ -0.01133177571064, 51.139072680327637 ], [ -0.012446394455288, 51.138899170818952 ], [ -0.012455667722566, 51.1392658038056 ], [ -0.014450171117817, 51.139625235795897 ], [ -0.014414100119297, 51.14006619258916 ], [ -0.016165395023063, 51.140380996653803 ], [ -0.01670089063315, 51.14099532474917 ], [ -0.017653465600631, 51.141184593917878 ], [ -0.01834397715896, 51.141184154446833 ], [ -0.018781312027716, 51.140719417560192 ], [ -0.02036869758897, 51.140957189699016 ], [ -0.0200491272142, 51.139287575766687 ], [ -0.021136234153682, 51.139389162200573 ], [ -0.024654937590934, 51.138612521839974 ], [ -0.030705519360742, 51.138617177305164 ], [ -0.033241296086739, 51.139261090991972 ], [ -0.037381932810318, 51.139210983639579 ], [ -0.041780582489559, 51.139565773376376 ], [ -0.046249964326617, 51.138958381315739 ], [ -0.046354199640513, 51.139130546131568 ], [ -0.053017289503811, 51.137839157642041 ], [ -0.056325881300954, 51.136765491260249 ], [ -0.06320367454666, 51.14125755317523 ], [ -0.067079913138979, 51.141106801713775 ], [ -0.07396261699927, 51.141777860943698 ], [ -0.076312787435743, 51.142295923275391 ], [ -0.081065847519975, 51.142203985349646 ], [ -0.082613233364064, 51.142637719637413 ], [ -0.085389219924973, 51.142750623961042 ], [ -0.093060158406497, 51.138706672289764 ], [ -0.093690608364275, 51.138426459158964 ], [ -0.109169479441425, 51.139367482426913 ], [ -0.111765063407623, 51.140079397557848 ], [ -0.111644319295225, 51.140375130007499 ], [ -0.114964784949249, 51.140702096207299 ], [ -0.114586656228368, 51.141104267669107 ], [ -0.117252503326649, 51.141605911963758 ], [ -0.117829121844996, 51.140574612948186 ], [ -0.120810894847898, 51.140721687297528 ], [ -0.124558262595816, 51.140272996255945 ], [ -0.125142749915976, 51.140860091600665 ], [ -0.12757061270326, 51.140302032189332 ], [ -0.127402027389501, 51.13953574428124 ], [ -0.131084916099566, 51.139433893888317 ], [ -0.131748837930282, 51.141468515956298 ], [ -0.137571965024401, 51.142159581067844 ], [ -0.136330962954972, 51.146382880300877 ], [ -0.13503037906591, 51.155981277435444 ], [ -0.134192230648816, 51.157721629771594 ], [ -0.132959826028992, 51.158883698104901 ], [ -0.133136079879178, 51.159229143015246 ], [ -0.135984477258094, 51.159737673179542 ], [ -0.140462670041948, 51.160047285629084 ], [ -0.14623268481439, 51.160278309156162 ], [ -0.153143428911801, 51.159843495408907 ], [ -0.154514284338626, 51.160039539462318 ], [ -0.156422617235822, 51.159596620886489 ], [ -0.160892382006606, 51.159768618856994 ], [ -0.163496509569216, 51.160270089558999 ], [ -0.166953772192266, 51.161536849856532 ], [ -0.176706384644528, 51.166849944450156 ], [ -0.177616905637259, 51.167300260758779 ], [ -0.1791573845239, 51.167084184344908 ], [ -0.185298005879933, 51.164819694711184 ], [ -0.186770534152854, 51.163852389650053 ], [ -0.186271927867213, 51.162122420521861 ], [ -0.186866226319207, 51.161665830462482 ], [ -0.188885068982614, 51.162412933813741 ], [ -0.190509513468272, 51.16201991908666 ], [ -0.194926539518433, 51.162446969303836 ], [ -0.195921919181462, 51.162302291667935 ], [ -0.204109768672481, 51.155711293614459 ], [ -0.206517808674303, 51.155163680800477 ], [ -0.21214227231183, 51.155454863063632 ], [ -0.211188590633326, 51.152527452655335 ], [ -0.211574951953731, 51.150412773196535 ], [ -0.214307373210383, 51.150303393719348 ], [ -0.214235355566478, 51.148463288431095 ], [ -0.215884088391649, 51.148235727988784 ], [ -0.216981818635734, 51.149360367346894 ], [ -0.219940817210077, 51.149083497977976 ], [ -0.222792841798036, 51.148074899462607 ], [ -0.226577859813732, 51.148252876548916 ], [ -0.229041258598648, 51.145656871448928 ], [ -0.230147849613933, 51.145955118960018 ], [ -0.236272838201461, 51.145879468325901 ], [ -0.236066845150571, 51.146710047802102 ], [ -0.238697983101686, 51.146809962821727 ], [ -0.241925050996431, 51.146018568662328 ], [ -0.242290153198071, 51.146229132106264 ], [ -0.243253444078332, 51.145559259943013 ], [ -0.243351235042614, 51.144896462530312 ], [ -0.244201591600392, 51.144471853343255 ], [ -0.246615208992843, 51.145962263215402 ], [ -0.248512245924688, 51.144080267756316 ], [ -0.250045087906172, 51.144279808949697 ], [ -0.251158106733131, 51.144055994693616 ], [ -0.251525829189146, 51.143631629069681 ], [ -0.253246991373858, 51.14401438614123 ], [ -0.252740243320647, 51.144486141168436 ], [ -0.255184689649837, 51.144190812150804 ], [ -0.255496156228432, 51.140510450325657 ], [ -0.254625199513558, 51.139099420339015 ], [ -0.260503503482686, 51.13808591090752 ], [ -0.264671271988754, 51.135662183011547 ], [ -0.265928838428704, 51.133913773549686 ], [ -0.267189952503498, 51.132909093072868 ], [ -0.275290924372791, 51.130308496508889 ], [ -0.279396686505994, 51.129974244946489 ], [ -0.282162137058453, 51.13013090355507 ], [ -0.284641754844705, 51.130636716742679 ], [ -0.286390802908888, 51.130492449973403 ], [ -0.287636614765817, 51.129893240100522 ], [ -0.289316182228085, 51.128138628967072 ], [ -0.291598120562715, 51.126910289643746 ], [ -0.300346961125481, 51.12473567591104 ], [ -0.305593606558746, 51.124447631145017 ], [ -0.308867051852798, 51.125048111675625 ], [ -0.30918507493631, 51.124715390904015 ], [ -0.309627979421622, 51.124873822566748 ], [ -0.309627276167352, 51.124541078112657 ], [ -0.312551517685988, 51.124019440436783 ], [ -0.318215646409472, 51.124349272008551 ], [ -0.319332803120435, 51.124636929781559 ], [ -0.320610160219181, 51.125114774546127 ], [ -0.32636779256499, 51.125785553088797 ], [ -0.329502010646023, 51.124324597899189 ], [ -0.330569312148129, 51.123054109307617 ], [ -0.331619355899009, 51.122464767455163 ], [ -0.336249976743693, 51.120974073307337 ], [ -0.342015481951424, 51.119905798343581 ], [ -0.344356215505898, 51.118925026351661 ], [ -0.34811797288552, 51.118790719376747 ], [ -0.350500700380924, 51.118221097725694 ], [ -0.352787375992375, 51.118279313403875 ], [ -0.35392855723298, 51.118699157133179 ], [ -0.355330105775733, 51.120048473564609 ], [ -0.35803353377418, 51.121030192314528 ], [ -0.359664257649573, 51.120577306672587 ], [ -0.359239792941219, 51.119774636963655 ], [ -0.360258676387413, 51.119610827605996 ], [ -0.360452139836112, 51.119190906853667 ], [ -0.360018444309643, 51.1190085279367 ], [ -0.361399165038302, 51.11899641215949 ], [ -0.361459866704197, 51.119302122224958 ], [ -0.361845319203045, 51.118906465879419 ], [ -0.363629835281403, 51.118789307882942 ], [ -0.364545265387513, 51.119492742029195 ], [ -0.365465630613232, 51.118517308308881 ], [ -0.365180222179549, 51.117978309302174 ], [ -0.367339828865514, 51.117435614506547 ], [ -0.370141169551508, 51.11740985836186 ], [ -0.375955439569573, 51.11670928744509 ], [ -0.379352129470394, 51.117108001409697 ], [ -0.383101004362008, 51.11699355672382 ], [ -0.384575235207493, 51.114775131330475 ], [ -0.386335330033485, 51.114959041808113 ], [ -0.390345263292552, 51.114730105196699 ], [ -0.391524981124952, 51.116510757485955 ], [ -0.395501067742233, 51.113880064845993 ], [ -0.396504409969986, 51.112176236913726 ], [ -0.398094457178692, 51.11234186531685 ], [ -0.399651347651326, 51.111608713638141 ], [ -0.399161852571133, 51.11010289376582 ], [ -0.400923149893834, 51.109693564098215 ], [ -0.400218567566221, 51.108419542849582 ], [ -0.401931547725898, 51.107793593478746 ], [ -0.403850524114559, 51.107696628916088 ], [ -0.404014839060731, 51.108069358239199 ], [ -0.404381364668658, 51.107631949731697 ], [ -0.406847622456287, 51.10732384822731 ], [ -0.409481933267301, 51.107526915838527 ], [ -0.411179107892706, 51.106776642372793 ], [ -0.419197858564537, 51.105190593598586 ], [ -0.421107392549942, 51.104249202286496 ], [ -0.421580885837845, 51.103561334786768 ], [ -0.426532445524773, 51.102487829127163 ], [ -0.428123439391296, 51.101399468300087 ], [ -0.43304936569661, 51.100693130765876 ], [ -0.43554855170657, 51.09968875670932 ], [ -0.437243871101855, 51.098206909417598 ], [ -0.43843646744807, 51.09790809407118 ], [ -0.441214252357175, 51.097740182007875 ], [ -0.441433503450475, 51.098017396571585 ], [ -0.442503866874182, 51.098127855339669 ], [ -0.442342874458539, 51.09909243163726 ], [ -0.438827298160614, 51.100297346753806 ], [ -0.439966481122074, 51.100827872216087 ], [ -0.439537110166799, 51.101065779046934 ], [ -0.439471665097784, 51.101992070042883 ], [ -0.44006543841615, 51.102045033557189 ], [ -0.440182079453102, 51.102782171659051 ], [ -0.441196081496097, 51.103251589204014 ], [ -0.441058595526517, 51.10173633869784 ], [ -0.443794364829705, 51.101082959226929 ], [ -0.444849837089613, 51.099592574791721 ], [ -0.446102603564445, 51.100614945176638 ], [ -0.45047226441191, 51.100267537716377 ], [ -0.451181226106915, 51.099644556225293 ], [ -0.452029508600564, 51.099476832511861 ], [ -0.454244821378077, 51.100318999279764 ], [ -0.456847383507663, 51.100553195250171 ], [ -0.460745004703062, 51.099036673508373 ], [ -0.470275321001753, 51.098482695869833 ], [ -0.474463106354894, 51.096917890474316 ], [ -0.475967143595742, 51.096826171063249 ], [ -0.478850030784038, 51.097262988651096 ], [ -0.48300937975435, 51.096161982481455 ], [ -0.488450334132162, 51.097310662282787 ], [ -0.489222160807019, 51.096072425602905 ], [ -0.490411500600226, 51.095963048030249 ], [ -0.490823365504293, 51.094408640600349 ], [ -0.492109328197196, 51.094442671623547 ], [ -0.495495977227881, 51.093389974257384 ], [ -0.496102133020671, 51.092353631604482 ], [ -0.497721362212857, 51.091609173265532 ], [ -0.500184247796868, 51.090291854774357 ], [ -0.501640881570084, 51.090243897604722 ], [ -0.502305614949271, 51.089381959012044 ], [ -0.503337910729793, 51.088939174189996 ], [ -0.503022150296919, 51.088548459578433 ], [ -0.506361005676532, 51.088265582063933 ], [ -0.506835481997915, 51.088297709421404 ], [ -0.506941962964362, 51.088761262539322 ], [ -0.508441487124952, 51.088710259455027 ], [ -0.511062570787481, 51.08970407619875 ], [ -0.512889894477408, 51.089851467942871 ], [ -0.513309250931254, 51.089465535804159 ], [ -0.515285647207679, 51.090264065776154 ], [ -0.515231023133908, 51.090588014188626 ], [ -0.517010864740122, 51.090749032704764 ], [ -0.517210477344257, 51.091024058734625 ], [ -0.518385877288122, 51.091019166625294 ], [ -0.518513136294578, 51.090746482744365 ], [ -0.519982594304847, 51.090836873109005 ], [ -0.520898694241862, 51.091014286242334 ], [ -0.521236673150967, 51.091427554966103 ], [ -0.523170858225815, 51.091606670765302 ], [ -0.524137500548573, 51.089902077896873 ], [ -0.525661617647685, 51.089933879251255 ], [ -0.526945677563782, 51.089605633203519 ], [ -0.527287922289459, 51.090927470393751 ], [ -0.526043156967513, 51.09136319949576 ], [ -0.526388399549723, 51.091866690311441 ], [ -0.528821248816263, 51.0920186722634 ], [ -0.531263881276286, 51.092807420672919 ], [ -0.531123820658648, 51.092269749323464 ], [ -0.531455885102702, 51.092242451168097 ], [ -0.532423330541692, 51.093170882116411 ], [ -0.534979474725573, 51.093578888124597 ], [ -0.535595474180627, 51.093064987174614 ], [ -0.536581608960565, 51.090729342835246 ], [ -0.535854766054024, 51.089778691827185 ], [ -0.536129158281916, 51.088775756828902 ], [ -0.534487870434855, 51.086939609976746 ], [ -0.5326185904002, 51.086090601958702 ], [ -0.535124419500457, 51.084095958082528 ], [ -0.535523331586857, 51.083175591125816 ], [ -0.537317602525501, 51.083549667755491 ], [ -0.537548862558204, 51.082736877989412 ], [ -0.538610407316651, 51.083074793069159 ], [ -0.539181675161498, 51.082028010284937 ], [ -0.539485301409787, 51.08227013550578 ], [ -0.541246627170384, 51.082238999783222 ], [ -0.541341737375937, 51.083209602592895 ], [ -0.547641070489964, 51.083483225991188 ], [ -0.549991294878695, 51.083251600515361 ], [ -0.553113396763477, 51.084043041990441 ], [ -0.556135461932948, 51.084337535823785 ], [ -0.556550531196224, 51.08462594429345 ], [ -0.558474283731586, 51.082998637997974 ], [ -0.561676056850732, 51.083529129537716 ], [ -0.561712588433799, 51.083778607931158 ], [ -0.563057279145789, 51.083696255937937 ], [ -0.56650977067093, 51.084383430016423 ], [ -0.568124565377816, 51.084895168476393 ], [ -0.568570717445985, 51.085476184789378 ], [ -0.569757379375372, 51.085747832829341 ], [ -0.577592784796904, 51.08665374077038 ], [ -0.587125478625746, 51.084584850706769 ], [ -0.588265045449389, 51.084156448167157 ], [ -0.590546063495318, 51.081985426261497 ], [ -0.594137812141889, 51.080245866692351 ], [ -0.597757911740386, 51.079699428047398 ], [ -0.600994995278463, 51.079627788252154 ], [ -0.603893370086599, 51.080032767321079 ], [ -0.605218551620682, 51.0805972383247 ], [ -0.607594485531486, 51.082369611302255 ], [ -0.610698712693616, 51.083001610483109 ], [ -0.615193538104864, 51.084714987648972 ], [ -0.620947971316333, 51.088135993737176 ], [ -0.624664023328779, 51.088043575300759 ], [ -0.62868586771944, 51.088979237856314 ], [ -0.629623483021742, 51.088947980557286 ], [ -0.631138746128535, 51.088360519240553 ], [ -0.633794007795084, 51.086531112171031 ], [ -0.63787223010744, 51.085306865614733 ], [ -0.642634246720182, 51.084430793925414 ], [ -0.64593837002998, 51.084365340473141 ], [ -0.648159231493532, 51.083383408727805 ], [ -0.650253732816404, 51.083537919613761 ], [ -0.654268946306674, 51.083382956945286 ], [ -0.657617926133301, 51.082213918701619 ], [ -0.663975018106123, 51.081699436938173 ], [ -0.665757894992239, 51.080659286968285 ], [ -0.666367004420517, 51.079619459841219 ], [ -0.666762124108387, 51.079632957475411 ], [ -0.669060666915125, 51.077392994518902 ], [ -0.672542955294991, 51.077227511696883 ], [ -0.675571533855636, 51.076449859067097 ], [ -0.678807932775654, 51.076343436234815 ], [ -0.682472614878144, 51.075329964367498 ], [ -0.687425149761031, 51.075514191818542 ], [ -0.690566910022362, 51.073847090664188 ], [ -0.694351112885355, 51.072983784472981 ], [ -0.694617767149144, 51.072432783408871 ], [ -0.695932571188532, 51.0723242741796 ], [ -0.696752473592599, 51.07149165574144 ], [ -0.697227527374621, 51.071602219835022 ], [ -0.696907068472049, 51.072746068557791 ], [ -0.698627126995823, 51.073051183308984 ], [ -0.698128539345115, 51.073778608174791 ], [ -0.699989485823423, 51.074656235325193 ], [ -0.700550162625428, 51.074484876950137 ], [ -0.701836696948234, 51.075934306264237 ], [ -0.704495957553923, 51.076904034964784 ], [ -0.70668260753017, 51.078760950289578 ], [ -0.708839231959443, 51.078518563552677 ], [ -0.710606083082696, 51.077902464402065 ], [ -0.710800433825654, 51.078273569901349 ], [ -0.711866950410558, 51.077857710859483 ], [ -0.712894767956862, 51.077935564470401 ], [ -0.71300248635253, 51.077551862693426 ], [ -0.714584084225686, 51.077401531197786 ], [ -0.718675077655562, 51.077904563124207 ], [ -0.720124314840158, 51.078775159218921 ], [ -0.722301177577824, 51.079415820914775 ], [ -0.722861132647408, 51.0778118013748 ], [ -0.725188382983446, 51.078190116719739 ], [ -0.725683470055258, 51.07859027959077 ], [ -0.727563834185898, 51.079025714435652 ], [ -0.729875261388473, 51.080061548268304 ], [ -0.729943821690487, 51.080532647959039 ], [ -0.73060757631526, 51.08084739053578 ], [ -0.730920464764093, 51.082509898384778 ], [ -0.732266672616628, 51.083716437059344 ], [ -0.735107286665723, 51.083841994436142 ], [ -0.735579346313876, 51.084701421610504 ], [ -0.736341983057919, 51.084483927240207 ], [ -0.737794729669362, 51.08513898953499 ], [ -0.738406396048242, 51.08496219431305 ], [ -0.739040064660787, 51.085236123959668 ], [ -0.740921365892075, 51.085150226527695 ], [ -0.743929984143816, 51.085507218351587 ], [ -0.744992029325553, 51.085304660028214 ], [ -0.745739806298325, 51.084477238371861 ], [ -0.746860978024885, 51.085148411453801 ], [ -0.749069059664954, 51.085547033178479 ], [ -0.74916833389129, 51.085890706913602 ], [ -0.753475069662537, 51.086453470656693 ], [ -0.75358866775106, 51.086691559226153 ], [ -0.754728938200509, 51.086609227490221 ], [ -0.757395527951676, 51.087789813339903 ], [ -0.757504968600337, 51.088835673249754 ], [ -0.758574526384924, 51.090165430020086 ], [ -0.758262867681368, 51.090341921079002 ], [ -0.758565698355852, 51.090816396715354 ], [ -0.758900430437279, 51.090846921060702 ], [ -0.758553151684317, 51.092032977539105 ], [ -0.755300458815155, 51.094805063598869 ], [ -0.755157243680438, 51.095333971316656 ], [ -0.75431302425186, 51.095876248185171 ], [ -0.75585239120201, 51.09854362871863 ], [ -0.756240943549338, 51.098325709774315 ], [ -0.757995833483661, 51.100630268607659 ], [ -0.758505579417008, 51.100583541742225 ], [ -0.758622899244424, 51.102337400995019 ], [ -0.759814967348924, 51.103907583457996 ], [ -0.761334055650518, 51.10382480027004 ], [ -0.763184269994572, 51.102900166339616 ], [ -0.76524866235781, 51.102504763031781 ], [ -0.767052812927911, 51.102390664078293 ], [ -0.768886812288523, 51.103249937611487 ], [ -0.767801229069898, 51.103413805064235 ], [ -0.765755289183734, 51.102845533049233 ], [ -0.764912258288018, 51.102909447940519 ], [ -0.759865013293002, 51.104867623326541 ], [ -0.756286053406118, 51.104576976141118 ], [ -0.749272860838639, 51.103245873915732 ], [ -0.744588075169582, 51.106456790829618 ], [ -0.745647001489785, 51.106440281253349 ], [ -0.747592746518747, 51.10775994875074 ], [ -0.746828995556267, 51.108476299361996 ], [ -0.745495297644942, 51.112204302500025 ], [ -0.74848494424888, 51.112380232638998 ], [ -0.749222830320835, 51.113094956688826 ], [ -0.750261928583483, 51.113480256956976 ], [ -0.753143627653865, 51.113158518624438 ], [ -0.754125027601197, 51.113746315122363 ], [ -0.756246303412016, 51.114183470590255 ], [ -0.758438028232657, 51.115320158264367 ], [ -0.760388464816585, 51.115386183404119 ], [ -0.76186627469337, 51.114896457751009 ], [ -0.764169336003375, 51.115180900207129 ], [ -0.76917132382091, 51.117088242996623 ], [ -0.769515161781371, 51.118839593395116 ], [ -0.770671666321429, 51.120977364780856 ], [ -0.772420877991814, 51.121766331555555 ], [ -0.772631204758968, 51.122365474892653 ], [ -0.77411585622808, 51.123068095754142 ], [ -0.77773403656962, 51.126868253289395 ], [ -0.778888813268974, 51.127466824299788 ], [ -0.780659558487652, 51.12779251956411 ], [ -0.780878579185957, 51.128096524238963 ], [ -0.78238090706478, 51.128523019605062 ], [ -0.783007343748382, 51.129369637824297 ], [ -0.782717109648614, 51.130032073206408 ], [ -0.780563511322137, 51.131258080006447 ], [ -0.780897292727288, 51.132803263707522 ], [ -0.78055634275772, 51.134483314716263 ], [ -0.78105299638241, 51.135217619913362 ], [ -0.781893027546058, 51.135619265354691 ], [ -0.7848095936052, 51.136131715124954 ], [ -0.786946123805031, 51.137553344888083 ], [ -0.789561886028349, 51.138334593320131 ], [ -0.791103083315016, 51.139235410210702 ], [ -0.792534734652829, 51.143794012024898 ], [ -0.793785610576095, 51.144787931863114 ], [ -0.793497653912197, 51.145359589993021 ], [ -0.79453393427392, 51.14804145191534 ], [ -0.794396123870836, 51.149759062209142 ], [ -0.795260814870248, 51.149771572733336 ], [ -0.796929865205049, 51.150863648096554 ], [ -0.799101950291211, 51.151390554576494 ], [ -0.79837484972975, 51.152537635833092 ], [ -0.802296632860473, 51.152687042752873 ], [ -0.803417250856604, 51.153036632036489 ], [ -0.803382001210609, 51.154176566923937 ], [ -0.804287497309008, 51.155053789094438 ], [ -0.804775658207035, 51.155050233082576 ], [ -0.804700597097169, 51.155354314952589 ], [ -0.805489197144975, 51.155327303452268 ], [ -0.805373752541604, 51.154935844952668 ], [ -0.80595017971261, 51.154608107782444 ], [ -0.806848184612516, 51.154579416711819 ], [ -0.80692159234835, 51.15385352746712 ], [ -0.807162719682357, 51.154065911182904 ], [ -0.807838766439809, 51.153877757046459 ], [ -0.808027092809871, 51.154116182699816 ], [ -0.808178574405718, 51.153775378545546 ], [ -0.809616018600846, 51.153515478621394 ], [ -0.811053918505745, 51.152686153931022 ], [ -0.810987550683027, 51.152425412848451 ], [ -0.81357597149485, 51.151886432944139 ], [ -0.812529043246819, 51.151234271733159 ], [ -0.815613418383274, 51.150157308434387 ], [ -0.816796955799591, 51.149515707822381 ], [ -0.816910252578548, 51.148981972712029 ], [ -0.817925779902513, 51.148831816122112 ], [ -0.81740981328429, 51.148511676335211 ], [ -0.817788555840863, 51.148063626925762 ], [ -0.817367911747446, 51.147756590817245 ], [ -0.823330270701903, 51.146394746677231 ], [ -0.824802951247886, 51.147567180579031 ], [ -0.825914033770214, 51.146313530785164 ], [ -0.825914169477784, 51.145738813213754 ], [ -0.828350884252033, 51.145280624558431 ], [ -0.832327256517607, 51.147752912176351 ], [ -0.833179113624196, 51.1479898296638 ], [ -0.834182572789604, 51.147600567862234 ], [ -0.833807542101834, 51.149758399570828 ], [ -0.830921737994464, 51.155721343760035 ], [ -0.83130260914283, 51.159099196210619 ], [ -0.830458091538451, 51.161223722704911 ], [ -0.831249755046402, 51.161247821144038 ], [ -0.830024352372795, 51.162484637617382 ], [ -0.830373097671428, 51.162720159833604 ], [ -0.829157051968985, 51.167820247221805 ], [ -0.827118758610039, 51.174591049180655 ], [ -0.827729516653394, 51.177024293602557 ], [ -0.827592140705527, 51.17759036503751 ], [ -0.826807964359499, 51.177539259088149 ], [ -0.82655594591171, 51.178564647626509 ], [ -0.825426690949264, 51.181232151528839 ], [ -0.827238759463621, 51.184665110091416 ], [ -0.82808633516647, 51.184849617676662 ], [ -0.828300320600908, 51.186005449284359 ], [ -0.830051781525541, 51.1882640100524 ], [ -0.834734367457446, 51.191482422930939 ], [ -0.835150790801418, 51.191481177093422 ], [ -0.836383729202455, 51.192759598854394 ], [ -0.837162947587397, 51.194323063358631 ], [ -0.838091798173955, 51.194718952734497 ], [ -0.838107544728817, 51.195233426304881 ], [ -0.839292115079568, 51.196335131170869 ], [ -0.84263286888814, 51.199349216004556 ], [ -0.843046756903332, 51.199400147861319 ], [ -0.843316685049297, 51.198908189093594 ], [ -0.843758781025147, 51.1989116614008 ], [ -0.845531677732801, 51.200134185588027 ], [ -0.845751629996937, 51.200787409575426 ], [ -0.843811911817396, 51.201708874862071 ], [ -0.84549429653769, 51.204381848662841 ], [ -0.847027616272852, 51.205983251365751 ], [ -0.846091518058564, 51.206551356973264 ], [ -0.847054851679961, 51.208852218281429 ], [ -0.848929913623263, 51.210732697234072 ], [ -0.846830389205084, 51.212366937667717 ], [ -0.843615667475752, 51.213573655370475 ], [ -0.842713536747682, 51.213579122619073 ], [ -0.842658701115065, 51.213876412553269 ], [ -0.840233569197282, 51.215127446007912 ], [ -0.839556269173674, 51.216897562320966 ], [ -0.836296351384035, 51.219469237810785 ], [ -0.834667209224646, 51.222025783837125 ], [ -0.833750820875134, 51.222005142570303 ], [ -0.833632990859017, 51.222957085617388 ], [ -0.832322097271148, 51.224051079493861 ], [ -0.829100011132411, 51.225404805266457 ], [ -0.828733368062113, 51.226026110281218 ], [ -0.828886040827399, 51.227175971022469 ], [ -0.828574991265918, 51.22724299811248 ], [ -0.828470243252781, 51.230681228171484 ], [ -0.82798953987836, 51.233085423119327 ], [ -0.826633401331468, 51.234366727186313 ], [ -0.823530083568995, 51.233949812607264 ], [ -0.823690113850697, 51.234301216393511 ], [ -0.820863817056521, 51.234477827876205 ], [ -0.820797989333531, 51.2354482426191 ], [ -0.820778354797581, 51.239270797269661 ], [ -0.816254938626061, 51.239363659528692 ], [ -0.813658133110879, 51.240348088584192 ], [ -0.813432890658756, 51.241531025392462 ], [ -0.807569242616706, 51.242966782660588 ], [ -0.806211601091917, 51.2447730018676 ], [ -0.804749756253021, 51.245064718808784 ], [ -0.803458100444988, 51.241511262051752 ], [ -0.801740227308612, 51.239038736074754 ], [ -0.797410786796953, 51.23954557751302 ], [ -0.793047474772896, 51.241616593913633 ], [ -0.790231415514296, 51.242415654309852 ], [ -0.786900705874061, 51.241865068071114 ], [ -0.784424282634231, 51.242004780199416 ], [ -0.781933402938873, 51.241667394696115 ], [ -0.778057474349743, 51.242148879670189 ], [ -0.775904898230503, 51.24193483824363 ], [ -0.77147477979263, 51.238996897428791 ], [ -0.771410785861236, 51.238119916633806 ], [ -0.769723943902516, 51.236432754211478 ], [ -0.76769447029677, 51.236071321385644 ], [ -0.76764986329772, 51.236069257192533 ], [ -0.761176310245234, 51.234892524076471 ], [ -0.759662458705203, 51.234037557661203 ], [ -0.758721282634805, 51.233880953421 ], [ -0.752100400239863, 51.231989530938797 ], [ -0.750254842706942, 51.231012137226777 ], [ -0.745540569574794, 51.230456362303734 ], [ -0.74384622806476, 51.230615284852668 ], [ -0.741758350554617, 51.231333887672143 ], [ -0.739188849350117, 51.233480524371878 ], [ -0.738848526548555, 51.235497487776243 ], [ -0.735786250523362, 51.237680136190896 ], [ -0.735899874073996, 51.238862974088008 ], [ -0.736527544027652, 51.238961450232658 ], [ -0.738183146481506, 51.240124970934076 ], [ -0.738498368269147, 51.241117511683157 ], [ -0.738085796157477, 51.241741623717623 ], [ -0.737387082103111, 51.24240579532659 ], [ -0.736528339937807, 51.245090551440406 ], [ -0.735203667757669, 51.245587928932771 ], [ -0.734682001493846, 51.246584906521804 ], [ -0.73610416422516, 51.248745848024633 ], [ -0.735740794483074, 51.249402843010174 ], [ -0.734464362844551, 51.250590421951983 ], [ -0.732814316784434, 51.250881898621216 ], [ -0.730695662684842, 51.251956057888535 ], [ -0.731155412901968, 51.253474418384805 ], [ -0.730489997916814, 51.254899748502595 ], [ -0.730534789729821, 51.255354317562023 ], [ -0.729557339032373, 51.255722361637353 ], [ -0.729396185723885, 51.256421109274683 ], [ -0.730287490663414, 51.256942407894051 ], [ -0.730398854261605, 51.257378012189854 ], [ -0.73243746622427, 51.257660023598042 ], [ -0.733300848138273, 51.259721454669695 ], [ -0.733705428808435, 51.260126890956073 ], [ -0.733231333863779, 51.261161390879764 ], [ -0.731990709140775, 51.262133549923817 ], [ -0.732582040505119, 51.262727202736166 ], [ -0.732669095132451, 51.263628341126108 ], [ -0.731562112077086, 51.264275507706145 ], [ -0.731245860724589, 51.265978878790527 ], [ -0.731633403837853, 51.266790676387593 ], [ -0.731485812361752, 51.268304386173106 ], [ -0.730900823600191, 51.268518303203329 ], [ -0.730138340544845, 51.269973197791067 ], [ -0.730358546839062, 51.271507081549288 ], [ -0.73115436004715, 51.272435690357788 ], [ -0.730413796694358, 51.273460908431275 ], [ -0.731552653176018, 51.27448044223101 ], [ -0.731405046346282, 51.274948313281826 ], [ -0.732217075740663, 51.275659431577267 ], [ -0.732312810584579, 51.276450869150061 ], [ -0.733069910736972, 51.276761224037045 ], [ -0.732944550096561, 51.277356982260947 ], [ -0.733383219384034, 51.277357236882594 ], [ -0.733480321127303, 51.27778998828321 ], [ -0.732824815632147, 51.278165054607754 ], [ -0.732940639862998, 51.279168064300023 ], [ -0.731596116974849, 51.279885047372467 ], [ -0.731735502831182, 51.280238617459545 ], [ -0.73107010660727, 51.280346956007222 ], [ -0.731564913087884, 51.280600994515844 ], [ -0.731212850432451, 51.281361504537955 ], [ -0.731652431870135, 51.281536272419238 ], [ -0.732293105255522, 51.281337257117656 ], [ -0.733348872986906, 51.281791091469955 ], [ -0.733260205525899, 51.282410620162636 ], [ -0.733835722945182, 51.2828062978218 ], [ -0.733393529083599, 51.283401323443783 ], [ -0.733873214405888, 51.283791378006086 ], [ -0.733280018754899, 51.284034064600164 ], [ -0.733760851330194, 51.284434013208909 ], [ -0.734254381878892, 51.284376426450407 ], [ -0.735128616988221, 51.285433464954316 ], [ -0.735714955671488, 51.285440696671806 ], [ -0.735538205453504, 51.285767905799332 ], [ -0.735984999777058, 51.285944525875721 ], [ -0.735622391278987, 51.286254444734034 ], [ -0.736363230744156, 51.28752587344276 ], [ -0.73608964300059, 51.288352860120902 ], [ -0.737230695905014, 51.289674452678462 ], [ -0.7366877581061, 51.29242388140073 ], [ -0.738238039259949, 51.292896565830773 ], [ -0.73847135588132, 51.293647208244288 ], [ -0.739347387963809, 51.294026216860345 ], [ -0.739307265619809, 51.295124691758417 ], [ -0.739973986714132, 51.296127307978736 ], [ -0.738946633982791, 51.297031667134171 ], [ -0.739653945363649, 51.297286595723889 ], [ -0.739811430413301, 51.298657790318281 ], [ -0.739400678182006, 51.298939329338985 ], [ -0.738836331786697, 51.299750595085051 ], [ -0.739223415241396, 51.299914874367097 ], [ -0.739393442523496, 51.301354521046981 ], [ -0.740483842461321, 51.301922908429148 ], [ -0.740287259316148, 51.302342588447722 ], [ -0.741606142035587, 51.303687620270928 ], [ -0.741733484921502, 51.304749146786939 ], [ -0.742421611599957, 51.305027228766747 ], [ -0.742321549691274, 51.305537846868596 ], [ -0.743570512941638, 51.305714885616652 ], [ -0.743621107271475, 51.306543651721007 ], [ -0.744698647736868, 51.306905015239089 ], [ -0.743590404148177, 51.307456047446514 ], [ -0.743682738614043, 51.307860768297424 ], [ -0.744424312580076, 51.308232908091661 ], [ -0.744167270371685, 51.309294888081702 ], [ -0.745653494506808, 51.310032896734711 ], [ -0.746155094216046, 51.310001420516954 ], [ -0.746389433897835, 51.310618109750827 ], [ -0.747364372862843, 51.310433394889877 ], [ -0.748124586764722, 51.311070999010774 ], [ -0.747969514148273, 51.31134001839429 ], [ -0.748638898388786, 51.311629553594543 ], [ -0.749623734630642, 51.31144672482737 ], [ -0.751267910094283, 51.312560510250627 ], [ -0.752137858901876, 51.312439350466043 ], [ -0.753573000057948, 51.312795443534796 ], [ -0.754432322188935, 51.313490778311071 ], [ -0.755583959414764, 51.313509321320893 ], [ -0.756410912659988, 51.314020728104857 ], [ -0.75644799474906, 51.314666766879753 ], [ -0.758290824966518, 51.315925482014606 ], [ -0.758512033182978, 51.316768642097244 ], [ -0.759249025802181, 51.31716220926409 ], [ -0.761071566892022, 51.31694409899854 ], [ -0.76133338391715, 51.317344397896221 ], [ -0.762311647093483, 51.317465322802668 ], [ -0.763051155552946, 51.318352607461321 ], [ -0.762903282669919, 51.318730500208979 ], [ -0.763051834473491, 51.320410003353707 ], [ -0.763666347132864, 51.320825712744394 ], [ -0.763471424588532, 51.321404478557376 ], [ -0.764074461519393, 51.32176792440071 ], [ -0.764398905608936, 51.321551913140176 ], [ -0.765063701389615, 51.322661346865637 ], [ -0.766061864121317, 51.322901212090088 ], [ -0.765902829765772, 51.323479552395781 ], [ -0.76497784053992, 51.324097450835922 ], [ -0.764991175569528, 51.324667720604957 ], [ -0.766343167574094, 51.325950798870657 ], [ -0.76709364518427, 51.326224896603492 ], [ -0.768202565129279, 51.326676265063639 ], [ -0.768599714685133, 51.327600341914021 ], [ -0.769206920436215, 51.327865710636132 ], [ -0.770651205749966, 51.327531090668089 ], [ -0.772356563956909, 51.32789605773322 ], [ -0.772220997239593, 51.328457562992931 ], [ -0.773019916295476, 51.329017080738907 ], [ -0.772713920994441, 51.32935287172149 ], [ -0.773542161199017, 51.329456923637785 ], [ -0.773600659831186, 51.330170586678967 ], [ -0.77465507636869, 51.330621296842232 ], [ -0.775466380894177, 51.331958882086916 ], [ -0.772680152527022, 51.33284313054628 ], [ -0.768968664204275, 51.335485809906174 ], [ -0.764662206846799, 51.337030200200843 ], [ -0.761431737367165, 51.340409436258611 ], [ -0.760376116132049, 51.340263402428434 ], [ -0.758192783516323, 51.340568434558236 ], [ -0.75942867104942, 51.343521326460639 ], [ -0.756944501010165, 51.344296047274689 ], [ -0.755156876449736, 51.345480446720465 ], [ -0.752416074062511, 51.348541394499051 ], [ -0.749751894730614, 51.349933763802383 ], [ -0.748053236761222, 51.352348097457551 ], [ -0.744325925128409, 51.354563028633159 ], [ -0.741455576575886, 51.357117576836806 ], [ -0.735335553866987, 51.365009549049397 ], [ -0.73525855303974, 51.365040182665801 ], [ -0.731853034042571, 51.366431417742945 ], [ -0.724090697228337, 51.368466387589223 ], [ -0.710368991576563, 51.370653191844895 ], [ -0.697007048281181, 51.374394890836484 ], [ -0.667634457488716, 51.384571319966 ], [ -0.66434692383099, 51.385738808657493 ], [ -0.658168681995742, 51.386281452054781 ], [ -0.655300636487735, 51.38724575021287 ], [ -0.652376502425156, 51.386790457495586 ], [ -0.650738166233437, 51.385662841942604 ], [ -0.64703687013628, 51.385932123576644 ], [ -0.646679071069985, 51.385384273792631 ], [ -0.640473606831725, 51.387380401638794 ], [ -0.639500704397913, 51.386631467308924 ], [ -0.638527803213954, 51.386658999081021 ], [ -0.636182874972554, 51.385187443273445 ], [ -0.634798714734833, 51.385098483337096 ], [ -0.634623553334266, 51.384752946274588 ], [ -0.632507214880727, 51.384303782338094 ], [ -0.628218130406746, 51.384234791718029 ], [ -0.625930857723062, 51.38287268292342 ], [ -0.624938967882173, 51.382882626312252 ], [ -0.620922688425818, 51.385171688498403 ], [ -0.619608257441664, 51.384821619448203 ], [ -0.619249566265996, 51.384991886141549 ], [ -0.618044936124857, 51.383379763407468 ], [ -0.616344424095096, 51.383539564525265 ], [ -0.617194122623045, 51.385817448311656 ], [ -0.618841941710581, 51.387462685979159 ], [ -0.620515966625809, 51.388475135242686 ], [ -0.623494866862068, 51.389543341143415 ], [ -0.621666821559036, 51.390046959092508 ], [ -0.618456183906276, 51.391780777606861 ], [ -0.618006572600168, 51.392056046830547 ], [ -0.618495380138886, 51.392388228292006 ], [ -0.619635001815929, 51.392824260212123 ], [ -0.615419912923652, 51.396375911432258 ], [ -0.615584243670576, 51.396739422483662 ], [ -0.616586622872602, 51.397013768461093 ], [ -0.615608641556749, 51.39764785691932 ], [ -0.615017425436462, 51.397039361552622 ], [ -0.61452089050203, 51.397394069038135 ], [ -0.615792500117905, 51.398700394147099 ], [ -0.616474864538073, 51.398287555992205 ], [ -0.617212465992839, 51.398759418493682 ], [ -0.618100068486583, 51.398643139331959 ], [ -0.618368865159177, 51.399025765667851 ], [ -0.614384731868139, 51.403092672350333 ], [ -0.611296093883632, 51.408708634129525 ], [ -0.608501398159424, 51.412010649930544 ], [ -0.606683192204625, 51.414111235811376 ], [ -0.605154903072462, 51.417359996699766 ], [ -0.604956400245907, 51.42138072947089 ], [ -0.605124723647262, 51.431312090629717 ], [ -0.594188619686706, 51.439309089773005 ], [ -0.593933606892764, 51.440474308610433 ], [ -0.594557252765754, 51.44091891356981 ], [ -0.594222638349019, 51.441545436893236 ], [ -0.593008290740718, 51.441819232251305 ], [ -0.591167404415273, 51.441138406453391 ], [ -0.590508020452608, 51.441210224176118 ], [ -0.588480292609077, 51.442342234327668 ], [ -0.585378651828982, 51.442365927096567 ], [ -0.584502852337649, 51.443656519185957 ], [ -0.579675800944576, 51.444747320285963 ], [ -0.571690295185429, 51.450991577323727 ], [ -0.567819914910287, 51.450080155611019 ], [ -0.564945103175027, 51.448037902753875 ], [ -0.563141712997169, 51.445750626624452 ], [ -0.562019646440496, 51.44514154962615 ], [ -0.559713837456953, 51.444528416718711 ], [ -0.556772897423873, 51.44204897538458 ], [ -0.555569373530891, 51.441478410540761 ], [ -0.554052443083254, 51.441514775714516 ], [ -0.552860815984477, 51.442889440644549 ], [ -0.551818337794461, 51.443499734840273 ], [ -0.550448045056803, 51.443467769421311 ], [ -0.54836018242868, 51.441921317266797 ], [ -0.53759957382391, 51.438777562259034 ], [ -0.534660736909776, 51.437365026949628 ], [ -0.527582386946889, 51.435691886117191 ], [ -0.522778051406167, 51.435303679121837 ], [ -0.523263948498643, 51.435806632805928 ], [ -0.524531810460573, 51.435928717684412 ], [ -0.525159533651713, 51.436898801685174 ], [ -0.525231702553354, 51.437564241353229 ], [ -0.524068646260215, 51.438827427540772 ], [ -0.524539750638396, 51.439880047423365 ], [ -0.526083336132701, 51.440159357316155 ], [ -0.526491462062898, 51.44057909940188 ], [ -0.527728944011397, 51.440889600971069 ], [ -0.530563339490415, 51.441013507294976 ], [ -0.531495132455857, 51.441678660579299 ], [ -0.530640804980477, 51.443773127058677 ], [ -0.53106260139716, 51.444889829295136 ], [ -0.529405566712907, 51.445495833257624 ], [ -0.526731796242362, 51.447509894296843 ], [ -0.540576965536376, 51.457094522523782 ], [ -0.54061334253024, 51.457852101368516 ], [ -0.540601692603888, 51.458388265041094 ], [ -0.537061108472357, 51.459689046831869 ], [ -0.536591241044472, 51.459360215705281 ], [ -0.535301581465237, 51.460512394209246 ], [ -0.532071850709382, 51.464490647822927 ], [ -0.529645892635251, 51.469293734515034 ], [ -0.530377822632521, 51.469320888321299 ], [ -0.529960400332202, 51.470168163765322 ], [ -0.524358864662846, 51.471528457906167 ], [ -0.521221185760895, 51.471447581587597 ], [ -0.518728525330806, 51.470790251141629 ], [ -0.517136597078991, 51.469884363126056 ], [ -0.515661418503461, 51.468268653705024 ] ] ] } }
]
}
